NORAD_CAT_ID,OBJECT_NAME,OBJECT_TYPE,EPOCH,MEAN_MOTION,ECCENTRICITY,INCLINATION,RA_OF_ASC_NODE,ARG_OF_PERICENTER,MEAN_ANOMALY,BSTAR,MEAN_MOTION_DOT,MEAN_MOTION_DDOT,TLE_LINE0,TLE_LINE1,TLE_LINE2,SEMIMAJOR_AXIS,PERIOD,APOGEE,PERIGEE,DECAYED
53183.0,STARLINK-4268,PAYLOAD,2023-02-03 02:02:26,15.08832575,0.0001474,53.2148,164.5966,85.3963,274.7198,0.0002565,3.796e-05,0.0,0 STARLINK-4268,1 53183U 22083BD  23034.08502766  .00003796  00000-0  25650-3 0  9997,2 53183  53.2148 164.5966 0001474  85.3963 274.7198 15.08832575 31794,6917.903,95.438,540.788,538.748,0.0
53183.0,STARLINK-4268,PAYLOAD,2023-02-03 13:10:08,15.08833542,0.0001024,53.2182,162.5172,86.1868,273.9241,0.00022225,3.25e-05,0.0,0 STARLINK-4268,1 53183U 22083BD  23034.54870971  .00003250  00000-0  22225-3 0  9994,2 53183  53.2182 162.5172 0001024  86.1868 273.9241 15.08833542 31226,6917.9,95.438,540.474,539.057,0.0
53183.0,STARLINK-4268,PAYLOAD,2023-02-03 17:56:17,15.08843713,5.21e-05,53.2184,161.6211,126.3884,233.7157,0.00020863,3.035e-05,0.0,0 STARLINK-4268,1 53183U 22083BD  23034.74742175  .00003035  00000-0  20863-3 0  9997,2 53183  53.2184 161.6211 0000521 126.3884 233.7157 15.08843713 31252,6917.869,95.437,540.094,539.374,0.0
53183.0,STARLINK-4268,PAYLOAD,2023-02-04 14:36:17,15.08858467,6.96e-05,53.218,157.7573,89.1747,270.9325,-2.7468e-05,-7.25e-06,0.0,0 STARLINK-4268,1 53183U 22083BD  23035.60853733 -.00000725  00000-0 -27468-4 0  9990,2 53183  53.2180 157.7573 0000696  89.1747 270.9325 15.08858467 31388,6917.824,95.436,540.17,539.207,0.0
53183.0,STARLINK-4268,PAYLOAD,2023-02-05 12:51:42,15.08841353,8.28e-05,53.2184,153.5933,110.4433,249.6648,-1.6051e-05,-5.43e-06,0.0,0 STARLINK-4268,1 53183U 22083BD  23036.53590312 -.00000543  00000-0 -16051-4 0  9998,2 53183  53.2184 153.5933 0000828 110.4433 249.6648 15.08841353 32167,6917.876,95.437,540.314,539.168,0.0
53183.0,STARLINK-4268,PAYLOAD,2023-02-05 14:27:05,15.08844111,7.17e-05,53.2184,153.2957,111.7441,248.3628,-2.9832e-05,-7.62e-06,0.0,0 STARLINK-4268,1 53183U 22083BD  23036.60214150 -.00000762  00000-0 -29832-4 0  9993,2 53183  53.2184 153.2957 0000717 111.7441 248.3628 15.08844111 31539,6917.868,95.437,540.229,539.237,0.0
53183.0,STARLINK-4268,PAYLOAD,2023-02-06 12:42:28,15.08845171,8.29e-05,53.218,149.1343,87.6399,272.4689,2.9975e-05,1.89e-06,0.0,0 STARLINK-4268,1 53183U 22083BD  23037.52949927  .00000189  00000-0  29975-4 0  9991,2 53183  53.2180 149.1343 0000829  87.6399 272.4689 15.08845171 31672,6917.865,95.437,540.303,539.156,0.0
53183.0,STARLINK-4268,PAYLOAD,2023-02-06 14:17:51,15.08851477,8.86e-05,53.2184,148.8367,99.5137,260.5955,3.0608e-05,2e-06,0.0,0 STARLINK-4268,1 53183U 22083BD  23037.59573481  .00000200  00000-0  30608-4 0  9995,2 53183  53.2184 148.8367 0000886  99.5137 260.5955 15.08851477 32326,6917.845,95.437,540.323,539.097,0.0
53183.0,STARLINK-4268,PAYLOAD,2023-02-07 10:57:52,15.08841466,0.0001065,53.2181,144.9709,100.8564,259.2548,0.00010884,1.445e-05,0.0,0 STARLINK-4268,1 53183U 22083BD  23038.45685784  .00001445  00000-0  10884-3 0  9996,2 53183  53.2181 144.9709 0001065 100.8564 259.2548 15.08841466 32454,6917.876,95.437,540.478,539.004,0.0
53183.0,STARLINK-4268,PAYLOAD,2023-02-07 14:08:37,15.08855032,8.22e-05,53.2176,144.376,108.0458,252.0623,0.00021004,3.058e-05,0.0,0 STARLINK-4268,1 53183U 22083BD  23038.58932529  .00003058  00000-0  21004-3 0  9990,2 53183  53.2176 144.3760 0000822 108.0458 252.0623 15.08855032 31831,6917.834,95.437,540.268,539.131,0.0
53183.0,STARLINK-4268,PAYLOAD,2023-02-07 17:19:23,15.08861723,8.93e-05,53.2178,143.7805,112.6225,247.4862,0.00025262,3.737e-05,0.0,0 STARLINK-4268,1 53183U 22083BD  23038.72179835  .00003737  00000-0  25262-3 0  9993,2 53183  53.2178 143.7805 0000893 112.6225 247.4862 15.08861723 32497,6917.814,95.436,540.297,539.061,0.0
53183.0,STARLINK-4268,PAYLOAD,2023-02-08 10:48:40,15.08835636,0.0001356,53.2189,140.5115,107.8685,252.2455,-5.3592e-05,-1.141e-05,0.0,0 STARLINK-4268,1 53183U 22083BD  23039.45046635 -.00001141  00000-0 -53592-4 0  9992,2 53183  53.2189 140.5115 0001356 107.8685 252.2455 15.08835636 32608,6917.894,95.438,540.697,538.821,0.0
53183.0,STARLINK-4268,PAYLOAD,2023-02-08 13:59:26,15.08838904,0.0001362,53.2192,139.9171,96.9849,263.1298,-2.1946e-05,-6.37e-06,0.0,0 STARLINK-4268,1 53183U 22083BD  23039.58294441 -.00000637  00000-0 -21946-4 0  9993,2 53183  53.2192 139.9171 0001362  96.9849 263.1298 15.08838904 31980,6917.884,95.438,540.691,538.807,0.0
53183.0,STARLINK-4268,PAYLOAD,2023-02-09 10:39:27,15.08838345,0.0001154,53.217,136.0526,104.0637,256.0483,1.2774e-05,-8.5e-07,0.0,0 STARLINK-4268,1 53183U 22083BD  23040.44406532 -.00000085  00000-0  12774-4 0  9991,2 53183  53.2170 136.0526 0001154 104.0637 256.0483 15.08838345 32115,6917.885,95.438,540.549,538.952,0.0
53183.0,STARLINK-4268,PAYLOAD,2023-02-09 13:50:12,15.08856668,0.0001083,53.2181,135.454,107.1305,252.9806,5.364e-05,5.66e-06,0.0,0 STARLINK-4268,1 53183U 22083BD  23040.57653135  .00000566  00000-0  53640-4 0  9998,2 53183  53.2181 135.4540 0001083 107.1305 252.9806 15.08856668 32777,6917.829,95.437,540.444,538.945,0.0
53183.0,STARLINK-4268,PAYLOAD,2023-02-09 23:22:31,15.08852378,0.0001094,53.2181,133.6714,91.8748,268.237,-1.2746e-05,-4.91e-06,0.0,0 STARLINK-4268,1 53183U 22083BD  23040.97397458 -.00000491  00000-0 -12746-4 0  9996,2 53183  53.2181 133.6714 0001094  91.8748 268.2370 15.08852378 32839,6917.843,95.437,540.464,538.951,0.0
53183.0,STARLINK-4268,PAYLOAD,2023-02-10 12:05:35,15.08859399,0.0001308,53.2172,131.2942,87.4789,272.6353,0.00027832,4.147e-05,0.0,0 STARLINK-4268,1 53183U 22083BD  23041.50388491  .00004147  00000-0  27832-3 0  9994,2 53183  53.2172 131.2942 0001308  87.4789 272.6353 15.08859399 32919,6917.821,95.436,540.591,538.781,0.0
53183.0,STARLINK-4268,PAYLOAD,2023-02-10 15:16:21,15.0886491,0.0001322,53.2176,130.6979,72.7581,287.3556,0.00030707,4.606e-05,0.0,0 STARLINK-4268,1 53183U 22083BD  23041.63635994  .00004606  00000-0  30707-3 0  9996,2 53183  53.2176 130.6979 0001322  72.7581 287.3556 15.08864910 32293,6917.804,95.436,540.584,538.755,0.0
53183.0,STARLINK-4268,PAYLOAD,2023-02-10 23:13:19,15.08837461,0.0001163,53.2171,129.2136,98.4107,261.7017,8.6331e-05,1.086e-05,0.0,0 STARLINK-4268,1 53183U 22083BD  23041.96758158  .00001086  00000-0  86331-4 0  9994,2 53183  53.2171 129.2136 0001163  98.4107 261.7017 15.08837461 32984,6917.888,95.438,540.558,538.949,0.0
53183.0,STARLINK-4268,PAYLOAD,2023-02-11 10:21:01,15.08831911,0.0001214,53.2173,127.1319,102.9108,257.202,4.1187e-05,3.68e-06,0.0,0 STARLINK-4268,1 53183U 22083BD  23042.43126779  .00000368  00000-0  41187-4 0  9997,2 53183  53.2173 127.1319 0001214 102.9108 257.2020 15.08831911 33052,6917.905,95.438,540.61,538.93,0.0
53183.0,STARLINK-4268,PAYLOAD,2023-02-11 11:56:24,15.08842236,0.0001399,53.2192,126.8348,83.2038,276.9113,-1.9873e-05,-6.04e-06,0.0,0 STARLINK-4268,1 53183U 22083BD  23042.49750433 -.00000604  00000-0 -19873-4 0  9995,2 53183  53.2192 126.8348 0001399  83.2038 276.9113 15.08842236 32421,6917.874,95.437,540.706,538.771,0.0
53183.0,STARLINK-4268,PAYLOAD,2023-02-12 11:47:11,15.08839719,0.00018,53.2168,122.373,88.1825,271.9374,-1.1189e-06,-3.06e-06,0.0,0 STARLINK-4268,1 53183U 22083BD  23043.49110741 -.00000306  00000-0 -11189-5 0  9990,2 53183  53.2168 122.3730 0001800  88.1825 271.9374 15.08839719 33219,6917.881,95.438,540.991,538.501,0.0
53183.0,STARLINK-4268,PAYLOAD,2023-02-13 11:37:58,15.08842813,0.000137,53.2186,117.9106,102.8303,257.2842,0.00020229,2.933e-05,0.0,0 STARLINK-4268,1 53183U 22083BD  23044.48470492  .00002933  00000-0  20229-3 0  9991,2 53183  53.2186 117.9106 0001370 102.8303 257.2842 15.08842813 32724,6917.872,95.437,540.685,538.789,0.0
53183.0,STARLINK-4268,PAYLOAD,2023-02-13 21:10:17,15.08842237,0.0001116,53.2177,116.1271,93.7526,266.3594,0.00011667,1.57e-05,0.0,0 STARLINK-4268,1 53183U 22083BD  23044.88214869  .00001570  00000-0  11667-3 0  9991,2 53183  53.2177 116.1271 0001116  93.7526 266.3594 15.08842237 33424,6917.874,95.437,540.511,538.967,0.0
53183.0,STARLINK-4268,PAYLOAD,2023-02-14 11:28:46,15.08832061,0.000125,53.2164,113.4523,91.593,268.5205,0.00014246,1.98e-05,0.0,0 STARLINK-4268,1 53183U 22083BD  23045.47831719  .00001980  00000-0  14246-3 0  9997,2 53183  53.2164 113.4523 0001250  91.5930 268.5205 15.08832061 33511,6917.905,95.438,540.634,538.905,0.0
53183.0,STARLINK-4268,PAYLOAD,2023-02-14 16:14:55,15.08839791,0.0001613,53.218,112.5578,90.6194,269.4983,0.00013445,1.852e-05,0.0,0 STARLINK-4268,1 53183U 22083BD  23045.67703306  .00001852  00000-0  13445-3 0  9997,2 53183  53.2180 112.5578 0001613  90.6194 269.4983 15.08839791 33547,6917.881,95.438,540.862,538.63,0.0
53183.0,STARLINK-4268,PAYLOAD,2023-02-14 21:01:06,15.08819696,0.0002185,53.2173,111.6655,78.7121,281.4116,-3.8777e-05,-9.05e-06,0.0,0 STARLINK-4268,1 53183U 22083BD  23045.87577213 -.00000905  00000-0 -38777-4 0  9991,2 53183  53.2173 111.6655 0002185  78.7121 281.4116 15.08819696 33574,6917.942,95.439,541.319,538.296,0.0
53183.0,STARLINK-4268,PAYLOAD,2023-02-15 08:08:47,15.08839868,0.0001199,53.2175,109.5868,94.3668,265.7461,5.4712e-05,5.83e-06,0.0,0 STARLINK-4268,1 53183U 22083BD  23046.33943733  .00000583  00000-0  54712-4 0  9994,2 53183  53.2175 109.5868 0001199  94.3668 265.7461 15.08839868 33641,6917.881,95.438,540.575,538.916,0.0
53183.0,STARLINK-4268,PAYLOAD,2023-02-15 11:19:32,15.08854031,0.0001046,53.2173,108.9905,106.2458,253.8649,0.00016286,2.306e-05,0.0,0 STARLINK-4268,1 53183U 22083BD  23046.47190484  .00002306  00000-0  16286-3 0  9994,2 53183  53.2173 108.9905 0001046 106.2458 253.8649 15.08854031 33662,6917.838,95.437,540.426,538.979,0.0
53183.0,STARLINK-4268,PAYLOAD,2023-02-15 12:54:55,15.08857923,0.0001157,53.2179,108.6924,104.9714,255.1406,0.00020349,2.954e-05,0.0,0 STARLINK-4268,1 53183U 22083BD  23046.53814119  .00002954  00000-0  20349-3 0  9993,2 53183  53.2179 108.6924 0001157 104.9714 255.1406 15.08857923 33039,6917.826,95.436,540.491,538.89,0.0
